#aV2010  9  6  0  0   .00000000      96 DD+AD WGS84 FIT  NGA
## 1600  86400.00000000   900.00000000 55445  .0000000000000
+   32     1  2  3  4  5  6  7  8  9 10 11 12 13 14 15 16 17
+         18 19 20 21 22 23 24 25 26 27 28 29 30 31 32  0  0
+          0  0  0  0  0  0  0  0  0  0  0  0  0  0  0  0  0
+          0  0  0  0  0  0  0  0  0  0  0  0  0  0  0  0  0
+          0  0  0  0  0  0  0  0  0  0  0  0  0  0  0  0  0
++         0  0  0  0  0  0  0  0  0  0  0  0  0  0  0  0  0
++         0  0  0  0  0  0  0  0  0  0  0  0  0  0  0  0  0
++         0  0  0  0  0  0  0  0  0  0  0  0  0  0  0  0  0
++         0  0  0  0  0  0  0  0  0  0  0  0  0  0  0  0  0
++         0  0  0  0  0  0  0  0  0  0  0  0  0  0  0  0  0
%c cc cc ccc ccc cccc cccc cccc cccc ccccc ccccc ccccc ccccc
%c cc cc ccc ccc cccc cccc cccc cccc ccccc ccccc ccccc ccccc
%f  0.0000000  0.000000000  0.00000000000  0.000000000000000
%f  0.0000000  0.000000000  0.00000000000  0.000000000000000
%i    0    0    0    0      0      0      0      0         0
%i    0    0    0    0      0      0      0      0         0
/*      NGA, ST. LOUIS,MO.                                  
/*   EPHEMERIS COMPUTED FROM  3 DAYS OF DATA                
/* CCCCCCCCCCCCCCCCCCCCCCCCCCCCCCCCCCCCCCCCCCCCCCCCCCCCCCCCC
/* CCCCCCCCCCCCCCCCCCCCCCCCCCCCCCCCCCCCCCCCCCCCCCCCCCCCCCCCC
*  2010  9  6 13 15   .00000000                                                 
P  1   6537.617765 -19810.691809  16245.033585   -159.694812                    
V  1   7005.098027  19771.597741  21259.852563      -.039130                    
P  2  -3735.312929  15218.204325  21440.923600    286.469580                    
V  2 -26350.318594  -7210.903591     63.543032       .028181                    
P  3   5333.734236 -22443.668094 -13247.384263    604.861341                    
V  3  12756.656803 -10807.592210  24495.450093       .048535                    
P  4 -17448.948953   8720.469168  18000.841666    163.464445                    
V  4 -21794.677787  -8035.871313 -16705.575317       .088402                    
P  5   2139.506528  25719.216442   6065.395165    -33.088945                    
V  5  -4732.104960  -6780.545549  30455.786710      -.049734                    
P  6  11408.163222 -22047.257450  -9036.567498    504.534063                    
V  6  10572.077338  -6286.473298  28332.022531      -.149724                    
P  7 -25936.335161  -5601.892007  -2661.596752     -1.905414                    
V  7  -2587.475533  -3103.811626  31651.050572       .000365                    
P  8 -22911.518690   1204.904330 -13852.300697      6.600163                    
V  8 -15910.431111  -6897.875694  25194.545703       .001294                    
P  9  16027.003454  14884.394407 -15626.423135     28.798121                    
V  9 -18564.106236  -3342.617624 -23019.027083       .023172                    
P 10  -7998.128566  18646.244691  16763.049132    -51.597043                    
V 10  -7009.519273 -20773.483695  19892.982690      -.010527                    
P 11 -20996.347515 -11015.416376 -12600.924070    -87.645782                    
V 11  15765.401723  -3100.186591 -23728.406737      -.026350                    
P 12  11930.780962  21835.803050   9538.894309    -75.663332                    
V 12    749.424432  12160.619655 -28730.339863       .037573                    
P 13 -18783.192335   -155.693161  18664.280361    298.074765                    
V 13  17672.462362 -16102.729573  17477.153958      -.009027                    
P 14  21026.243857 -15783.093152  -3020.456422     85.965055                    
V 14  -1613.080187   4269.351840 -32086.725107       .037395                    
P 15   3094.654722  17083.274741 -20050.187867   -213.006635                    
V 15 -18897.931786  17248.605356  11893.399094       .054009                    
P 16   2687.598755 -23720.242692  11371.782072   -106.052729                    
V 16   5354.131776  13640.276103  27527.048080      -.034634                    
P 17 -21564.181212  13901.416064  -6308.971760    169.690783                    
V 17   4062.124788  -7687.515617 -30522.288670       .014688                    
P 18  16361.553699   5077.640864 -20092.549064     91.457653                    
V 18   4851.664631  25732.833064   9926.169023       .022500                    
P 19  -2560.105693 -16569.404255 -20509.838829    -63.669963                    
V 19  20873.366792 -15814.958726  10481.725620      -.031175                    
P 20 -13335.518311 -20849.530029   9574.885574     51.412746                    
V 20   -319.714987 -12782.267176 -27843.458734      -.004014                    
P 21  26079.131640   3963.821351  -4872.420622    -86.259494                    
V 21   5383.063509   4867.352411  29908.515939      -.026509                    
P 22  13630.696093  -9183.485237 -20676.699248    163.673373                    
V 22   6754.756332  25922.159992  -7098.586639      -.008146                    
P 23 -12308.697208  -8991.179399  21760.525644    355.097901                    
V 23  19920.768883 -19121.848282   3035.962599      -.017832                    
P 24   2492.720270 -15394.603392 -21455.775251    319.313044                    
V 24  26015.096143   8662.618598  -2931.451302       .032712                    
P 25  15839.799520  12504.875108  17240.675588    -40.828640                    
V 25   3999.279163  21642.957149 -19358.483559      -.007366                    
P 26  -6800.195272  19916.801975 -16496.543682     -5.937471                    
V 26 -16171.025210  11865.437319  22149.857073      -.069135                    
P 27  11907.066890  15004.396394 -17809.993676    186.472068                    
V 27 -23580.676798  -4016.253100 -18263.493414       .034481                    
P 28 -13864.445083   5440.431806 -21491.569450     -4.590804                    
V 28  -6311.783311 -27736.193361  -3161.781902       .014387                    
P 29  18422.295482   1340.189932  19153.986799    147.420753                    
V 29 -16983.981732  17232.478207  15236.187557       .027869                    
P 30  16170.882687  11279.149028  17406.003697    275.986085                    
V 30   4814.168385  22473.682742 -18565.203319       .032954                    
P 31  14483.942708  -9964.065291  20169.971560    -11.430416                    
V 31  23846.614548   7732.024047 -13270.280754       .030301                    
P 32  -7962.110278 -25013.147194   5491.260368    -78.911532                    
V 32   1419.959267  -6800.928622 -30438.572148      -.089866                    
EOF
